STARLINK-37596          
1 69032U 26101H   26132.83335648 -.02062471  00000+0 -88666-2 0  9993
2 69032  97.2888 346.9428 0001268 114.4358 218.8258 15.87924138  2287
