{
  "norad_id": 69032,
  "name": "STARLINK-37596",
  "history": [
    {
      "epoch": "2026-05-12T20:00:01.999008Z",
      "apogee_km": 308.95219696036384,
      "perigee_km": 307.25522906740116,
      "latitude_deg": -26.779101492205214,
      "longitude_deg": -179.987585080373,
      "height_km": 318.9572683281116,
      "semi_major_axis_km": 6686.240713013883,
      "eccentricity": 0.0001269,
      "inclination_deg": 97.2888,
      "raan_deg": 346.9428,
      "arg_perigee_deg": 114.4358,
      "mean_anomaly_deg": 218.8258,
      "mean_motion_rev_day": 15.87924138
    }
  ]
}